start=new Date('2022-11-16T00:00:00.000Z').valueOf();
sats=[{"TLE_LINE2":"2 46725  53.0535 290.6824 0001828  51.5959 308.5194 15.06405501114958","FILE":"3656971","RA_OF_ASC_NODE":"290.6824","SITE":"AFETR","REV_AT_EPOCH":"11495","DECAY_DATE":null,"MEAN_ANOMALY":"308.5194","EPOCH":"2022-11-15T05:02:44.029248","NORAD_CAT_ID":"46725","BSTAR":"0.00030530000000","COUNTRY_CODE":"US","ELEMENT_SET_NO":"999","CENTER_NAME":"EARTH","GP_ID":"217810239","OBJECT_TYPE":"PAYLOAD","MEAN_MOTION_DOT":"0.00004269","APOAPSIS":"548.463","PERIAPSIS":"545.931","REF_FRAME":"TEME","TIME_SYSTEM":"UTC","ECCENTRICITY":"0.00018280","ARG_OF_PERICENTER":"51.5959","TLE_LINE1":"1 46725U 20073BH  22319.21023182  .00004269  00000-0  30530-3 0  9997","MEAN_ELEMENT_THEORY":"SGP4","INCLINATION":"53.0535","CLASSIFICATION_TYPE":"U","EPHEMERIS_TYPE":"0","RCS_SIZE":"LARGE","OBJECT_NAME":"STARLINK-1828","LAUNCH_DATE":"2020-10-18","OBJECT_ID":"2020-073BH","PERIOD":"95.592","MEAN_MOTION_DDOT":"0.0000000000000","SEMIMAJOR_AXIS":"6925.332","MEAN_MOTION":"15.06405501"},{"TLE_LINE2":"2 46726  53.0544 275.8539 0001298  95.6277 264.4860 15.06404453114674","RA_OF_ASC_NODE":"275.8539","FILE":"3657603","SITE":"AFETR","REV_AT_EPOCH":"11467","DECAY_DATE":null,"MEAN_ANOMALY":"264.4860","EPOCH":"2022-11-15T04:02:19.817952","NORAD_CAT_ID":"46726","BSTAR":"0.00017430000000","COUNTRY_CODE":"US","CENTER_NAME":"EARTH","ELEMENT_SET_NO":"999","GP_ID":"217842851","OBJECT_TYPE":"PAYLOAD","MEAN_MOTION_DOT":"0.00002316","APOAPSIS":"548.099","PERIAPSIS":"546.301","REF_FRAME":"TEME","TIME_SYSTEM":"UTC","ECCENTRICITY":"0.00012980","ARG_OF_PERICENTER":"95.6277","TLE_LINE1":"1 46726U 20073BJ  22319.16828493  .00002316  00000-0  17430-3 0  9995","MEAN_ELEMENT_THEORY":"SGP4","INCLINATION":"53.0544","CLASSIFICATION_TYPE":"U","EPHEMERIS_TYPE":"0","RCS_SIZE":"LARGE","OBJECT_NAME":"STARLINK-1829","LAUNCH_DATE":"2020-10-18","OBJECT_ID":"2020-073BJ","PERIOD":"95.592","MEAN_MOTION_DDOT":"0.0000000000000","SEMIMAJOR_AXIS":"6925.335","MEAN_MOTION":"15.06404453"},{"INCLINATION":"53.0549","EPHEMERIS_TYPE":"0","CLASSIFICATION_TYPE":"U","MEAN_ELEMENT_THEORY":"SGP4","ARG_OF_PERICENTER":"51.7334","ECCENTRICITY":"0.00017960","TLE_LINE1":"1 46727U 20073BK  22319.52353736  .00002676  00000-0  19850-3 0  9996","MEAN_MOTION":"15.06397750","SEMIMAJOR_AXIS":"6925.355","MEAN_MOTION_DDOT":"0.0000000000000","OBJECT_ID":"2020-073BK","PERIOD":"95.592","LAUNCH_DATE":"2020-10-18","OBJECT_NAME":"STARLINK-1830","RCS_SIZE":"LARGE","BSTAR":"0.00019850000000","DECAY_DATE":null,"NORAD_CAT_ID":"46727","EPOCH":"2022-11-15T12:33:53.627904","MEAN_ANOMALY":"308.3816","SITE":"AFETR","REV_AT_EPOCH":"11508","TLE_LINE2":"2 46727  53.0549 249.2776 0001796  51.7334 308.3816 15.06397750115084","FILE":"3657603","RA_OF_ASC_NODE":"249.2776","REF_FRAME":"TEME","TIME_SYSTEM":"UTC","PERIAPSIS":"545.977","APOAPSIS":"548.464","MEAN_MOTION_DOT":"0.00002676","GP_ID":"217843602","COUNTRY_CODE":"US","CENTER_NAME":"EARTH","ELEMENT_SET_NO":"999","OBJECT_TYPE":"PAYLOAD"},{"EPHEMERIS_TYPE":"0","CLASSIFICATION_TYPE":"U","INCLINATION":"53.0559","MEAN_ELEMENT_THEORY":"SGP4","TLE_LINE1":"1 46740U 20074B   22319.55025853 -.00000656  00000-0 -25171-4 0  9993","ECCENTRICITY":"0.00015230","ARG_OF_PERICENTER":"61.8040","SEMIMAJOR_AXIS":"6925.331","MEAN_MOTION":"15.06405614","MEAN_MOTION_DDOT":"0.0000000000000","PERIOD":"95.592","OBJECT_ID":"2020-074B","RCS_SIZE":"LARGE","OBJECT_NAME":"STARLINK-1848","LAUNCH_DATE":"2020-10-24","BSTAR":"-0.00002517100000","EPOCH":"2022-11-15T13:12:22.336992","MEAN_ANOMALY":"298.3102","NORAD_CAT_ID":"46740","DECAY_DATE":null,"REV_AT_EPOCH":"11421","SITE":"AFETR","FILE":"3657523","TLE_LINE2":"2 46740  53.0559 359.1572 0001523  61.8040 298.3102 15.06405614114218","RA_OF_ASC_NODE":"359.1572","TIME_SYSTEM":"UTC","REF_FRAME":"TEME","APOAPSIS":"548.251","PERIAPSIS":"546.142","MEAN_MOTION_DOT":"-0.00000656","OBJECT_TYPE":"PAYLOAD","COUNTRY_CODE":"US","ELEMENT_SET_NO":"999","CENTER_NAME":"EARTH","GP_ID":"217821259"},{"MEAN_ELEMENT_THEORY":"SGP4","INCLINATION":"53.0560","CLASSIFICATION_TYPE":"U","EPHEMERIS_TYPE":"0","ARG_OF_PERICENTER":"62.9995","ECCENTRICITY":"0.00014660","TLE_LINE1":"1 46741U 20074C   22319.36827121  .00005607  00000-0  39499-3 0  9997","MEAN_MOTION_DDOT":"0.0000000000000","MEAN_MOTION":"15.06404298","SEMIMAJOR_AXIS":"6925.335","LAUNCH_DATE":"2020-10-24","RCS_SIZE":"LARGE","OBJECT_NAME":"STARLINK-1865","OBJECT_ID":"2020-074C","PERIOD":"95.592","DECAY_DATE":null,"NORAD_CAT_ID":"46741","EPOCH":"2022-11-15T08:50:18.632544","MEAN_ANOMALY":"297.1143","BSTAR":"0.00039499000000","RA_OF_ASC_NODE":"354.9727","TLE_LINE2":"2 46741  53.0560 354.9727 0001466  62.9995 297.1143 15.06404298114256","FILE":"3657603","SITE":"AFETR","REV_AT_EPOCH":"11425","PERIAPSIS":"546.185","APOAPSIS":"548.216","TIME_SYSTEM":"UTC","REF_FRAME":"TEME","GP_ID":"217843594","CENTER_NAME":"EARTH","COUNTRY_CODE":"US","ELEMENT_SET_NO":"999","OBJECT_TYPE":"PAYLOAD","MEAN_MOTION_DOT":"0.00005607"},{"PERIAPSIS":"407.642","APOAPSIS":"413.857","TIME_SYSTEM":"UTC","REF_FRAME":"TEME","OBJECT_TYPE":"PAYLOAD","GP_ID":"217842852","COUNTRY_CODE":"US","CENTER_NAME":"EARTH","ELEMENT_SET_NO":"999","MEAN_MOTION_DOT":"0.00036066","NORAD_CAT_ID":"46742","EPOCH":"2022-11-15T12:45:22.522752","MEAN_ANOMALY":"300.9453","DECAY_DATE":null,"BSTAR":"0.00059293000000","RA_OF_ASC_NODE":"337.2245","TLE_LINE2":"2 46742  53.0551 337.2245 0004578  59.2005 300.9453 15.52047951114510","FILE":"3657603","REV_AT_EPOCH":"11451","SITE":"AFETR","MEAN_MOTION_DDOT":"0.0000000000000","MEAN_MOTION":"15.52047951","SEMIMAJOR_AXIS":"6788.884","LAUNCH_DATE":"2020-10-24","OBJECT_NAME":"STARLINK-1872","RCS_SIZE":"LARGE","PERIOD":"92.781","OBJECT_ID":"2020-074D","MEAN_ELEMENT_THEORY":"SGP4","EPHEMERIS_TYPE":"0","CLASSIFICATION_TYPE":"U","INCLINATION":"53.0551","TLE_LINE1":"1 46742U 20074D   22319.53151068  .00036066  00000-0  59293-3 0  9994","ARG_OF_PERICENTER":"59.2005","ECCENTRICITY":"0.00045780"},{"CLASSIFICATION_TYPE":"U","EPHEMERIS_TYPE":"0","INCLINATION":"53.0558","MEAN_ELEMENT_THEORY":"SGP4","TLE_LINE1":"1 46743U 20074E   22319.62629434  .00002379  00000-0  17857-3 0  9992","ARG_OF_PERICENTER":"63.3950","ECCENTRICITY":"0.00015860","MEAN_MOTION":"15.06392475","SEMIMAJOR_AXIS":"6925.372","MEAN_MOTION_DDOT":"0.0000000000000","PERIOD":"95.593","OBJECT_ID":"2020-074E","LAUNCH_DATE":"2020-10-24","RCS_SIZE":"LARGE","OBJECT_NAME":"STARLINK-1892","BSTAR":"0.00017857000000","NORAD_CAT_ID":"46743","EPOCH":"2022-11-15T15:01:51.830976","MEAN_ANOMALY":"296.7201","DECAY_DATE":null,"REV_AT_EPOCH":"11429","SITE":"AFETR","TLE_LINE2":"2 46743  53.0558 353.7941 0001586  63.3950 296.7201 15.06392475114296","RA_OF_ASC_NODE":"353.7941","FILE":"3657961","TIME_SYSTEM":"UTC","REF_FRAME":"TEME","PERIAPSIS":"546.138","APOAPSIS":"548.335","MEAN_MOTION_DOT":"0.00002379","OBJECT_TYPE":"PAYLOAD","GP_ID":"217902694","COUNTRY_CODE":"US","ELEMENT_SET_NO":"999","CENTER_NAME":"EARTH"},{"TLE_LINE1":"1 46744U 20074F   22319.51107054 -.00000446  00000-0 -11038-4 0  9991","ARG_OF_PERICENTER":"46.3262","ECCENTRICITY":"0.00021400","MEAN_ELEMENT_THEORY":"SGP4","EPHEMERIS_TYPE":"0","CLASSIFICATION_TYPE":"U","INCLINATION":"53.0542","LAUNCH_DATE":"2020-10-24","OBJECT_NAME":"STARLINK-1894","RCS_SIZE":"LARGE","PERIOD":"95.592","OBJECT_ID":"2020-074F","MEAN_MOTION_DDOT":"0.0000000000000","MEAN_MOTION":"15.06399012","SEMIMAJOR_AXIS":"6925.352","RA_OF_ASC_NODE":"354.3280","TLE_LINE2":"2 46744  53.0542 354.3280 0002140  46.3262 313.7904 15.06399012114279","FILE":"3657528","REV_AT_EPOCH":"11427","SITE":"AFETR","NORAD_CAT_ID":"46744","EPOCH":"2022-11-15T12:15:56.494656","MEAN_ANOMALY":"313.7904","DECAY_DATE":null,"BSTAR":"-0.00001103800000","OBJECT_TYPE":"PAYLOAD","GP_ID":"217821461","CENTER_NAME":"EARTH","COUNTRY_CODE":"US","ELEMENT_SET_NO":"999","MEAN_MOTION_DOT":"-0.00000446","PERIAPSIS":"545.735","APOAPSIS":"548.699","TIME_SYSTEM":"UTC","REF_FRAME":"TEME"},{"OBJECT_NAME":"STARLINK-1898","RCS_SIZE":"LARGE","LAUNCH_DATE":"2020-10-24","PERIOD":"90.643","OBJECT_ID":"2020-074G","MEAN_MOTION_DDOT":"0.0000000000000","SEMIMAJOR_AXIS":"6684.220","MEAN_MOTION":"15.88644174","TLE_LINE1":"1 46745U 20074G   22319.15954438  .00297169  00000-0  10041-2 0  9997","ECCENTRICITY":"0.00060990","ARG_OF_PERICENTER":"126.7310","MEAN_ELEMENT_THEORY":"SGP4","EPHEMERIS_TYPE":"0","CLASSIFICATION_TYPE":"U","INCLINATION":"53.0422","OBJECT_TYPE":"PAYLOAD","CENTER_NAME":"EARTH","COUNTRY_CODE":"US","ELEMENT_SET_NO":"999","GP_ID":"217880038","MEAN_MOTION_DOT":"0.00297169","APOAPSIS":"310.162","PERIAPSIS":"302.009","REF_FRAME":"TEME","TIME_SYSTEM":"UTC","TLE_LINE2":"2 46745  53.0422 242.6751 0006099 126.7310 233.4275 15.88644174115792","FILE":"3657830","RA_OF_ASC_NODE":"242.6751","REV_AT_EPOCH":"11579","SITE":"AFETR","EPOCH":"2022-11-15T03:49:44.634432","MEAN_ANOMALY":"233.4275","NORAD_CAT_ID":"46745","DECAY_DATE":null,"BSTAR":"0.00100410000000"},{"ECCENTRICITY":"0.00017930","ARG_OF_PERICENTER":"42.8670","TLE_LINE1":"1 46746U 20074H   22319.79215006  .00001325  00000-0  10785-3 0  9992","INCLINATION":"53.0561","EPHEMERIS_TYPE":"0","CLASSIFICATION_TYPE":"U","MEAN_ELEMENT_THEORY":"SGP4","OBJECT_ID":"2020-074H","PERIOD":"95.593","OBJECT_NAME":"STARLINK-1905","RCS_SIZE":"LARGE","LAUNCH_DATE":"2020-10-24","SEMIMAJOR_AXIS":"6925.371","MEAN_MOTION":"15.06392693","MEAN_MOTION_DDOT":"0.0000000000000","SITE":"AFETR","REV_AT_EPOCH":"11431","RA_OF_ASC_NODE":"353.0650","TLE_LINE2":"2 46746  53.0561 353.0650 0001793  42.8670 317.2459 15.06392693114313","FILE":"3657961","BSTAR":"0.00010785000000","DECAY_DATE":null,"EPOCH":"2022-11-15T19:00:41.765184","MEAN_ANOMALY":"317.2459","NORAD_CAT_ID":"46746","MEAN_MOTION_DOT":"0.00001325","ELEMENT_SET_NO":"999","COUNTRY_CODE":"US","CENTER_NAME":"EARTH","GP_ID":"217902444","OBJECT_TYPE":"PAYLOAD","TIME_SYSTEM":"UTC","REF_FRAME":"TEME","APOAPSIS":"548.478","PERIAPSIS":"545.994"}];
